{
  "norad_id": 66737,
  "name": "FLOCK 4H-34",
  "history": [
    {
      "epoch": "2026-03-28T22:29:40.791552Z",
      "apogee_km": 508.6697628860047,
      "perigee_km": 505.85198266054977,
      "latitude_deg": -1.6189032293770492e-05,
      "longitude_deg": -0.7455216786397649,
      "height_km": 511.75322819507574,
      "semi_major_axis_km": 6885.3978727732765,
      "eccentricity": 0.00020462,
      "inclination_deg": 97.4283,
      "raan_deg": 163.025,
      "arg_perigee_deg": 185.3664,
      "mean_anomaly_deg": 174.7549,
      "mean_motion_rev_day": 15.19529726
    },
    {
      "epoch": "2026-03-29T03:14:09.574656Z",
      "apogee_km": 508.6743893402754,
      "perigee_km": 505.8307234534832,
      "latitude_deg": -1.0500846114995555e-05,
      "longitude_deg": -71.86577142030775,
      "height_km": 511.7594118181443,
      "semi_major_axis_km": 6885.389556396879,
      "eccentricity": 0.0002065,
      "inclination_deg": 97.4283,
      "raan_deg": 163.2194,
      "arg_perigee_deg": 184.6035,
      "mean_anomaly_deg": 175.5181,
      "mean_motion_rev_day": 15.19532479
    },
    {
      "epoch": "2026-03-30T04:31:22.426464Z",
      "apogee_km": 508.6771272323949,
      "perigee_km": 505.7197379573863,
      "latitude_deg": -3.0966842297059535e-05,
      "longitude_deg": -91.17101352565057,
      "height_km": 511.76647575216185,
      "semi_major_axis_km": 6885.33543259489,
      "eccentricity": 0.00021476,
      "inclination_deg": 97.4282,
      "raan_deg": 164.2562,
      "arg_perigee_deg": 180.6554,
      "mean_anomaly_deg": 179.4678,
      "mean_motion_rev_day": 15.19550396
    }
  ]
}